[
  {
    "OBJECT_NAME": "STARLINK-31690",
    "OBJECT_ID": "24076T",
    "EPOCH": "2025-11-11T01:43:27.934176",
    "MEAN_MOTION": 15.27569649,
    "ECCENTRICITY": 4.36e-05,
    "INCLINATION": 43.0008,
    "RA_OF_ASC_NODE": 318.7147,
    "ARG_OF_PERICENTER": 229.532,
    "MEAN_ANOMALY": 130.5494,
    "EPHEMERIS_TYPE": 0,
    "CLASSIFICATION_TYPE": "U",
    "NORAD_CAT_ID": 59581,
    "ELEMENT_SET_NO": 999,
    "REV_AT_EPOCH": 8837,
    "BSTAR": 0.0,
    "MEAN_MOTION_DOT": -1.509e-05,
    "MEAN_MOTION_DDOT": 0.0,
    "TLE_LINE1": "1 59581U 24076T   25315.07185109 -.00001509  00000+0 -45348-4 0  9998",
    "TLE_LINE2": "2 59581  43.0008 318.7147 0000436 229.5320 130.5494 15.27569649 88378",
    "COMMENT": "Grouped by shell and plane from TLE"
  },
  {
    "OBJECT_NAME": "STARLINK-31701",
    "OBJECT_ID": "24076U",
    "EPOCH": "2025-11-11T02:05:37.953312",
    "MEAN_MOTION": 15.27701568,
    "ECCENTRICITY": 0.000125,
    "INCLINATION": 43.0034,
    "RA_OF_ASC_NODE": 318.8317,
    "ARG_OF_PERICENTER": 259.4987,
    "MEAN_ANOMALY": 100.5724,
    "EPHEMERIS_TYPE": 0,
    "CLASSIFICATION_TYPE": "U",
    "NORAD_CAT_ID": 59582,
    "ELEMENT_SET_NO": 999,
    "REV_AT_EPOCH": 8827,
    "BSTAR": 0.002067,
    "MEAN_MOTION_DOT": 0.00057272,
    "MEAN_MOTION_DDOT": 0.0,
    "TLE_LINE1": "1 59582U 24076U   25315.08724483  .00057272  00000+0  20670-2 0  9999",
    "TLE_LINE2": "2 59582  43.0034 318.8317 0001250 259.4987 100.5724 15.27701568 88274",
    "COMMENT": "Grouped by shell and plane from TLE"
  },
  {
    "OBJECT_NAME": "STARLINK-31697",
    "OBJECT_ID": "24076V",
    "EPOCH": "2025-11-11T06:36:59.212512",
    "MEAN_MOTION": 15.27588269,
    "ECCENTRICITY": 9.6e-05,
    "INCLINATION": 43.0026,
    "RA_OF_ASC_NODE": 317.6667,
    "ARG_OF_PERICENTER": 297.634,
    "MEAN_ANOMALY": 62.4414,
    "EPHEMERIS_TYPE": 0,
    "CLASSIFICATION_TYPE": "U",
    "NORAD_CAT_ID": 59583,
    "ELEMENT_SET_NO": 999,
    "REV_AT_EPOCH": 8830,
    "BSTAR": 0.00017144000000000003,
    "MEAN_MOTION_DOT": 4.46e-05,
    "MEAN_MOTION_DDOT": 0.0,
    "TLE_LINE1": "1 59583U 24076V   25315.27568533  .00004460  00000+0  17144-3 0  9997",
    "TLE_LINE2": "2 59583  43.0026 317.6667 0000960 297.6340  62.4414 15.27588269 88302",
    "COMMENT": "Grouped by shell and plane from TLE"
  },
  {
    "OBJECT_NAME": "STARLINK-31662",
    "OBJECT_ID": "24076W",
    "EPOCH": "2025-11-11T06:57:21.033792",
    "MEAN_MOTION": 15.27598258,
    "ECCENTRICITY": 0.0001604,
    "INCLINATION": 43.0019,
    "RA_OF_ASC_NODE": 317.7695,
    "ARG_OF_PERICENTER": 258.6258,
    "MEAN_ANOMALY": 101.4413,
    "EPHEMERIS_TYPE": 0,
    "CLASSIFICATION_TYPE": "U",
    "NORAD_CAT_ID": 59584,
    "ELEMENT_SET_NO": 999,
    "REV_AT_EPOCH": 8839,
    "BSTAR": 0.00066251,
    "MEAN_MOTION_DOT": 0.00018023,
    "MEAN_MOTION_DDOT": 0.0,
    "TLE_LINE1": "1 59584U 24076W   25315.28982678  .00018023  00000+0  66251-3 0  9992",
    "TLE_LINE2": "2 59584  43.0019 317.7695 0001604 258.6258 101.4413 15.27598258 88399",
    "COMMENT": "Grouped by shell and plane from TLE"
  },
  {
    "OBJECT_NAME": "STARLINK-31702",
    "OBJECT_ID": "24076X",
    "EPOCH": "2025-11-11T07:21:23.351328",
    "MEAN_MOTION": 15.27592112,
    "ECCENTRICITY": 6.4e-05,
    "INCLINATION": 43.0,
    "RA_OF_ASC_NODE": 317.8963,
    "ARG_OF_PERICENTER": 249.7644,
    "MEAN_ANOMALY": 110.3139,
    "EPHEMERIS_TYPE": 0,
    "CLASSIFICATION_TYPE": "U",
    "NORAD_CAT_ID": 59585,
    "ELEMENT_SET_NO": 999,
    "REV_AT_EPOCH": 8839,
    "BSTAR": 0.00016643,
    "MEAN_MOTION_DOT": 4.322e-05,
    "MEAN_MOTION_DDOT": 0.0,
    "TLE_LINE1": "1 59585U 24076X   25315.30652027  .00004322  00000+0  16643-3 0  9995",
    "TLE_LINE2": "2 59585  43.0000 317.8963 0000640 249.7644 110.3139 15.27592112 88395",
    "COMMENT": "Grouped by shell and plane from TLE"
  },
  {
    "OBJECT_NAME": "STARLINK-31854",
    "OBJECT_ID": "24084T",
    "EPOCH": "2025-11-11T00:53:33.254016",
    "MEAN_MOTION": 15.27592186,
    "ECCENTRICITY": 0.0001087,
    "INCLINATION": 43.0009,
    "RA_OF_ASC_NODE": 318.8582,
    "ARG_OF_PERICENTER": 303.388,
    "MEAN_ANOMALY": 56.6868,
    "EPHEMERIS_TYPE": 0,
    "CLASSIFICATION_TYPE": "U",
    "NORAD_CAT_ID": 59671,
    "ELEMENT_SET_NO": 999,
    "REV_AT_EPOCH": 8658,
    "BSTAR": 0.0,
    "MEAN_MOTION_DOT": -0.00010182,
    "MEAN_MOTION_DDOT": 0.0,
    "TLE_LINE1": "1 59671U 24084T   25315.03719044 -.00010182  00000+0 -36087-3 0  9990",
    "TLE_LINE2": "2 59671  43.0009 318.8582 0001087 303.3880  56.6868 15.27592186 86584",
    "COMMENT": "Grouped by shell and plane from TLE"
  },
  {
    "OBJECT_NAME": "STARLINK-32259",
    "OBJECT_ID": "24155P",
    "EPOCH": "2025-11-11T07:22:40.567872",
    "MEAN_MOTION": 15.30200912,
    "ECCENTRICITY": 0.0001214,
    "INCLINATION": 53.1605,
    "RA_OF_ASC_NODE": 319.7107,
    "ARG_OF_PERICENTER": 87.3164,
    "MEAN_ANOMALY": 272.7976,
    "EPHEMERIS_TYPE": 0,
    "CLASSIFICATION_TYPE": "U",
    "NORAD_CAT_ID": 60937,
    "ELEMENT_SET_NO": 999,
    "REV_AT_EPOCH": 6821,
    "BSTAR": 0.0,
    "MEAN_MOTION_DOT": -7.4e-06,
    "MEAN_MOTION_DDOT": 0.0,
    "TLE_LINE1": "1 60937U 24155P   25315.30741398 -.00000740  00000+0 -12859-4 0  9994",
    "TLE_LINE2": "2 60937  53.1605 319.7107 0001214  87.3164 272.7976 15.30200912 68212",
    "COMMENT": "Grouped by shell and plane from TLE"
  },
  {
    "OBJECT_NAME": "STARLINK-32258",
    "OBJECT_ID": "24155R",
    "EPOCH": "2025-11-11T07:02:55.230720",
    "MEAN_MOTION": 15.30187006,
    "ECCENTRICITY": 0.0001319,
    "INCLINATION": 53.1606,
    "RA_OF_ASC_NODE": 319.6218,
    "ARG_OF_PERICENTER": 80.4335,
    "MEAN_ANOMALY": 279.6814,
    "EPHEMERIS_TYPE": 0,
    "CLASSIFICATION_TYPE": "U",
    "NORAD_CAT_ID": 60939,
    "ELEMENT_SET_NO": 999,
    "REV_AT_EPOCH": 6816,
    "BSTAR": 9.4946e-05,
    "MEAN_MOTION_DOT": 2.453e-05,
    "MEAN_MOTION_DDOT": 0.0,
    "TLE_LINE1": "1 60939U 24155R   25315.29369480  .00002453  00000+0  94946-4 0  9990",
    "TLE_LINE2": "2 60939  53.1606 319.6218 0001319  80.4335 279.6814 15.30187006 68166",
    "COMMENT": "Grouped by shell and plane from TLE"
  },
  {
    "OBJECT_NAME": "STARLINK-32251",
    "OBJECT_ID": "24155S",
    "EPOCH": "2025-11-11T07:12:02.117664",
    "MEAN_MOTION": 15.30200673,
    "ECCENTRICITY": 8.03e-05,
    "INCLINATION": 53.1603,
    "RA_OF_ASC_NODE": 319.6664,
    "ARG_OF_PERICENTER": 77.8046,
    "MEAN_ANOMALY": 282.3044,
    "EPHEMERIS_TYPE": 0,
    "CLASSIFICATION_TYPE": "U",
    "NORAD_CAT_ID": 60940,
    "ELEMENT_SET_NO": 999,
    "REV_AT_EPOCH": 6821,
    "BSTAR": 0.00020482,
    "MEAN_MOTION_DOT": 5.712e-05,
    "MEAN_MOTION_DDOT": 0.0,
    "TLE_LINE1": "1 60940U 24155S   25315.30002451  .00005712  00000+0  20482-3 0  9990",
    "TLE_LINE2": "2 60940  53.1603 319.6664 0000803  77.8046 282.3044 15.30200673 68214",
    "COMMENT": "Grouped by shell and plane from TLE"
  },
  {
    "OBJECT_NAME": "STARLINK-32224",
    "OBJECT_ID": "24155T",
    "EPOCH": "2025-11-11T07:07:28.536384",
    "MEAN_MOTION": 15.30192561,
    "ECCENTRICITY": 0.0001267,
    "INCLINATION": 53.1608,
    "RA_OF_ASC_NODE": 319.6445,
    "ARG_OF_PERICENTER": 87.0367,
    "MEAN_ANOMALY": 273.0779,
    "EPHEMERIS_TYPE": 0,
    "CLASSIFICATION_TYPE": "U",
    "NORAD_CAT_ID": 60941,
    "ELEMENT_SET_NO": 999,
    "REV_AT_EPOCH": 6822,
    "BSTAR": 0.00012185000000000001,
    "MEAN_MOTION_DOT": 3.25e-05,
    "MEAN_MOTION_DDOT": 0.0,
    "TLE_LINE1": "1 60941U 24155T   25315.29685806  .00003250  00000+0  12185-3 0  9996",
    "TLE_LINE2": "2 60941  53.1608 319.6445 0001267  87.0367 273.0779 15.30192561 68220",
    "COMMENT": "Grouped by shell and plane from TLE"
  },
  {
    "OBJECT_NAME": "STARLINK-32184",
    "OBJECT_ID": "24155U",
    "EPOCH": "2025-11-11T07:18:07.143840",
    "MEAN_MOTION": 15.30185545,
    "ECCENTRICITY": 0.0001006,
    "INCLINATION": 53.1589,
    "RA_OF_ASC_NODE": 319.6912,
    "ARG_OF_PERICENTER": 78.6136,
    "MEAN_ANOMALY": 281.4977,
    "EPHEMERIS_TYPE": 0,
    "CLASSIFICATION_TYPE": "U",
    "NORAD_CAT_ID": 60942,
    "ELEMENT_SET_NO": 999,
    "REV_AT_EPOCH": 6816,
    "BSTAR": 0.0,
    "MEAN_MOTION_DOT": -3.65e-06,
    "MEAN_MOTION_DDOT": 0.0,
    "TLE_LINE1": "1 60942U 24155U   25315.30424935 -.00000365  00000+0 -21159-6 0  9993",
    "TLE_LINE2": "2 60942  53.1589 319.6912 0001006  78.6136 281.4977 15.30185545 68169",
    "COMMENT": "Grouped by shell and plane from TLE"
  },
  {
    "OBJECT_NAME": "STARLINK-32288",
    "OBJECT_ID": "24155V",
    "EPOCH": "2025-11-11T07:31:47.941248",
    "MEAN_MOTION": 15.30188204,
    "ECCENTRICITY": 0.000117,
    "INCLINATION": 53.1617,
    "RA_OF_ASC_NODE": 319.7481,
    "ARG_OF_PERICENTER": 99.7262,
    "MEAN_ANOMALY": 260.3871,
    "EPHEMERIS_TYPE": 0,
    "CLASSIFICATION_TYPE": "U",
    "NORAD_CAT_ID": 60943,
    "ELEMENT_SET_NO": 999,
    "REV_AT_EPOCH": 6816,
    "BSTAR": 7.3444e-05,
    "MEAN_MOTION_DOT": 1.816e-05,
    "MEAN_MOTION_DDOT": 0.0,
    "TLE_LINE1": "1 60943U 24155V   25315.31374932  .00001816  00000+0  73444-4 0  9998",
    "TLE_LINE2": "2 60943  53.1617 319.7481 0001170  99.7262 260.3871 15.30188204 68164",
    "COMMENT": "Grouped by shell and plane from TLE"
  },
  {
    "OBJECT_NAME": "STARLINK-32276",
    "OBJECT_ID": "24155W",
    "EPOCH": "2025-11-11T07:27:14.091264",
    "MEAN_MOTION": 15.30187981,
    "ECCENTRICITY": 0.000135,
    "INCLINATION": 53.1601,
    "RA_OF_ASC_NODE": 319.7256,
    "ARG_OF_PERICENTER": 91.504,
    "MEAN_ANOMALY": 268.6116,
    "EPHEMERIS_TYPE": 0,
    "CLASSIFICATION_TYPE": "U",
    "NORAD_CAT_ID": 60944,
    "ELEMENT_SET_NO": 999,
    "REV_AT_EPOCH": 6826,
    "BSTAR": 0.0,
    "MEAN_MOTION_DOT": -1.508e-05,
    "MEAN_MOTION_DDOT": 0.0,
    "TLE_LINE1": "1 60944U 24155W   25315.31057976 -.00001508  00000+0 -38803-4 0  9995",
    "TLE_LINE2": "2 60944  53.1601 319.7256 0001350  91.5040 268.6116 15.30187981 68267",
    "COMMENT": "Grouped by shell and plane from TLE"
  }
]